
ALOS-2
1 39766U 14029A   26170.30342074  .00001156  00000+0  16164-3 0  9999
2 39766  97.9224 267.4364 0001663  92.4797 267.6605 14.79474763651895

ASNARO
1 40298U 14070A   26170.26666870  .00003955  00000+0  18964-3 0  9994
2 40298  97.3448 246.3247 0005880 158.8790 201.2689 15.19457194644320

CARBONITE 1 (CBNT-1)
1 40718U 15032D   26170.27332206  .00001055  00000+0  13403-3 0  9996
2 40718  97.6507 348.2515 0013051 290.7268  69.2548 14.83592207589656

CARTOSAT-2C
1 41599U 16040A   26170.29997370  .00002607  00000+0  12698-3 0  9994
2 41599  97.4477 230.2494 0010158 124.8728 235.3463 15.19204759554035

CBERS 4
1 40336U 14079A   26170.33737565  .00000212  00000+0  88422-4 0  9994
2 40336  98.3526 227.1018 0001773  63.2702 296.8665 14.35510055604269

DEIMOS-2
1 40013U 14033D   26170.25978927  .00001030  00000+0  10246-3 0  9993
2 40013  97.5817  44.6752 0001371  53.5776 306.5571 14.93728020638033

GAOFEN-2
1 40118U 14049A   26170.33851390  .00000571  00000+0  80819-4 0  9992
2 40118  98.0105 234.5439 0006288 218.1780 141.8987 14.80900361639558

GAOFEN-4
1 41194U 15083A   26170.08655836 -.00000341  00000+0  00000+0 0  9990
2 41194   0.3635  83.8468 0004193 117.7548 202.5591  1.00274677 38543

GAOFEN-8
1 40701U 15030A   26170.28844428  .00010903  00000+0  22509-3 0  9990
2 40701  97.6902   3.7834 0008942 178.9526 181.1742 15.46008048611775

GAOFEN-9 01
1 40894U 15047A   26170.28934536  .00000769  00000+0  10052-3 0  9990
2 40894  97.6279 205.8887 0028519 131.2370 229.1309 14.82887319580502

HODOYOSHI-3
1 40015U 14033F   26170.20592372  .00000757  00000+0  93259-4 0  9997
2 40015  97.6420 333.1651 0032499 350.6335   9.4271 14.85391853647922

HODOYOSHI-4
1 40011U 14033B   26170.32023133  .00000626  00000+0  73446-4 0  9991
2 40011  97.5447 355.0388 0022401 300.8956  59.0059 14.88129501649125

JASON-3
1 41240U 16002A   26170.25505623 -.00000047  00000+0  60207-4 0  9994
2 41240  66.0405 121.4875 0008494 272.7056  87.2991 12.87628081487510

KAZEOSAT 2
1 40010U 14033A   26170.31820501  .00000855  00000+0  10495-3 0  9991
2 40010  97.5398   9.8169 0007672 322.0878  37.9797 14.85473353649276

KENT RIDGE 1
1 41167U 15077B   26170.32444260  .00003322  00000+0  10517-3 0  9996
2 41167  14.9791 250.0955 0008240 268.7936  91.1442 15.23142831581424

KOMPSAT-3A
1 40536U 15014A   26170.23798339  .00020984  00000+0  30295-3 0  9993
2 40536  97.6889 161.7504 0056694 167.0576 193.2148 15.54073907622136

SENTINEL-2A
1 40697U 15028A   26170.31259571  .00000139  00000+0  69709-4 0  9998
2 40697  98.5683 245.1341 0001127  93.2190 266.9122 14.30816126574031

SENTINEL-3A
1 41335U 16011A   26170.25032001  .00000090  00000+0  55077-4 0  9990
2 41335  98.6249 237.6045 0001412  99.7773 260.3567 14.26733252538351

SKYSAT-B
1 40072U 14037D   26169.60449564  .00001016  00000+0  11733-3 0  9995
2 40072  98.3840 128.6502 0004164 275.7139  84.3601 14.88031001646172

SMAP
1 40376U 15003A   26170.26793441  .00000319  00000+0  70747-4 0  9992
2 40376  98.1276 177.3330 0001349  96.5994 263.5362 14.63368144607929

SPOT 7
1 40053U 14034A   26170.30473647  .00000388  00000+0  88387-4 0  9990
2 40053  98.0625 232.7422 0001250  94.4943 265.6401 14.60960275637445

WORLDVIEW-3 (WV-3)
1 40115U 14048A   26170.25615253  .00000649  00000+0  82348-4 0  9990
2 40115  97.8566 245.0605 0000815  22.7554 337.3697 14.85024879642216

YAOGAN-21
1 40143U 14053A   26170.32597647  .00004807  00000+0  18716-3 0  9998
2 40143  97.1467 210.4705 0009935  88.4719 271.7658 15.26397089655282

YAOGAN-22
1 40275U 14063A   26170.16301586 -.00000041  00000+0  14614-4 0  9993
2 40275 100.7727 321.4690 0006389 180.9259 179.1841 13.15530977560079

YAOGAN-24
1 40310U 14072A   26170.31888012 -.00000063  00000+0 -13324-5 0  9997
2 40310  98.1499 307.6745 0012552 255.8992 104.0822 14.76223222624030

YAOGAN-26
1 40362U 14088A   26170.26760530  .00019579  00000+0  38326-3 0  9996
2 40362  97.0643 170.4286 0005836  63.3437 296.8411 15.47423142638025

YAOGAN-27
1 40878U 15040A   26170.30918444  .00000485  00000+0  13883-2 0  9997
2 40878 100.1155 156.6002 0007694 205.1833 154.8906 13.16072158517943

YAOGAN-28
1 41026U 15064A   26170.35361525  .00005281  00000+0  19905-3 0  9997
2 41026  97.3082 308.5708 0010831 175.7252 184.4082 15.27443400591010

YAOGAN-29
1 41038U 15069A   26170.33678862  .00000052  00000+0  13066-4 0  9992
2 41038  98.0021 198.9736 0002528  51.4321 308.7118 14.83086468570945

ZIYUAN 3-02 (ZY 3-02)
1 41556U 16033A   26170.29447748  .00004519  00000+0  20536-3 0  9992
2 41556  97.3833 246.0294 0012364 283.4186  76.5671 15.21196616558302
