OBJECT_NAME,OBJECT_ID,EPOCH,MEAN_MOTION,ECCENTRICITY,INCLINATION,RA_OF_ASC_NODE,ARG_OF_PERICENTER,MEAN_ANOMALY,EPHEMERIS_TYPE,CLASSIFICATION_TYPE,NORAD_CAT_ID,ELEMENT_SET_NO,REV_AT_EPOCH,BSTAR,MEAN_MOTION_DOT,MEAN_MOTION_DDOT
ALOS-2,2014-029A,2026-06-19T07:16:55.551936,14.79474763,.00016631,97.9224,267.4364,92.4797,267.6605,0,U,39766,999,65189,.16163866E-3,.1156E-4,0
KAZEOSAT 2,2014-033A,2026-06-19T07:38:12.912864,14.85473353,.00076721,97.5398,9.8169,322.0878,37.9797,0,U,40010,999,64927,.10494902E-3,.855E-5,0
HODOYOSHI-4,2014-033B,2026-06-19T07:41:07.986912,14.88129501,.00224019,97.5447,355.0388,300.8956,59.0059,0,U,40011,999,64912,.73445938E-4,.626E-5,0
DEIMOS-2,2014-033D,2026-06-19T06:14:05.792928,14.93728020,.00013712,97.5817,44.6752,53.5776,306.5571,0,U,40013,999,63803,.1024623E-3,.103E-4,0
HODOYOSHI-3,2014-033F,2026-06-19T04:56:31.809408,14.85391853,.00324993,97.6420,333.1651,350.6335,9.4271,0,U,40015,999,64792,.93258834E-4,.757E-5,0
SPOT 7,2014-034A,2026-06-19T07:18:49.231008,14.60960275,.00012503,98.0625,232.7422,94.4943,265.6401,0,U,40053,999,63744,.88386663E-4,.388E-5,0
SKYSAT-B,2014-037D,2026-06-18T14:30:28.423296,14.88031001,.00041647,98.3840,128.6502,275.7139,84.3601,0,U,40072,999,64617,.11733227E-3,.1016E-4,0
WORLDVIEW-3 (WV-3),2014-048A,2026-06-19T06:08:51.578592,14.85024879,.00008159,97.8566,245.0605,22.7554,337.3697,0,U,40115,999,64221,.82347797E-4,.649E-5,0
GAOFEN-2,2014-049A,2026-06-19T08:07:27.600960,14.80900361,.00062883,98.0105,234.5439,218.1780,141.8987,0,U,40118,999,63955,.80818561E-4,.571E-5,0
YAOGAN-21,2014-053A,2026-06-19T07:49:24.367008,15.26397089,.00099353,97.1467,210.4705,88.4719,271.7658,0,U,40143,999,65528,.18716216E-3,.4807E-4,0
YAOGAN-22,2014-063A,2026-06-19T03:54:44.570304,13.15530977,.00063897,100.7727,321.4690,180.9259,179.1841,0,U,40275,999,56007,.14614405E-4,-.41E-6,0
ASNARO,2014-070A,2026-06-19T06:24:00.175680,15.19457194,.00058802,97.3448,246.3247,158.8790,201.2689,0,U,40298,999,64432,.18964084E-3,.3955E-4,0
YAOGAN-24,2014-072A,2026-06-19T07:39:11.242368,14.76223222,.00125525,98.1499,307.6745,255.8992,104.0822,0,U,40310,999,62403,-.1332354E-5,-.63E-6,0
CBERS 4,2014-079A,2026-06-19T08:05:49.256160,14.35510055,.00017735,98.3526,227.1018,63.2702,296.8665,0,U,40336,999,60426,.88422054E-4,.212E-5,0
YAOGAN-26,2014-088A,2026-06-19T06:25:21.097920,15.47423142,.0005836,97.0643,170.4286,63.3437,296.8411,0,U,40362,999,63802,.38325631E-3,.19579E-3,0
SMAP,2015-003A,2026-06-19T06:25:49.533024,14.63368144,.00013498,98.1276,177.3330,96.5994,263.5362,0,U,40376,999,60792,.70746803E-4,.319E-5,0
KOMPSAT-3A,2015-014A,2026-06-19T05:42:41.764896,15.54073907,.00566949,97.6889,161.7504,167.0576,193.2148,0,U,40536,999,62213,.30295473E-3,.20984E-3,0
SENTINEL-2A,2015-028A,2026-06-19T07:30:08.269344,14.30816126,.00011279,98.5683,245.1341,93.2190,266.9122,0,U,40697,999,57403,.69708547E-4,.139E-5,0
GAOFEN-8,2015-030A,2026-06-19T06:55:21.585792,15.46008048,.00089426,97.6902,3.7834,178.9526,181.1742,0,U,40701,999,61177,.2250926E-3,.10903E-3,0
CARBONITE 1 (CBNT-1),2015-032D,2026-06-19T06:33:35.025984,14.83592207,.00130513,97.6507,348.2515,290.7268,69.2548,0,U,40718,999,58965,.13402756E-3,.1055E-4,0
YAOGAN-27,2015-040A,2026-06-19T07:25:13.535616,13.16072158,.00076947,100.1155,156.6002,205.1833,154.8906,0,U,40878,999,51794,.13882808E-2,.485E-5,0
GAOFEN-9 01,2015-047A,2026-06-19T06:56:39.439104,14.82887319,.0028519,97.6279,205.8887,131.2370,229.1309,0,U,40894,999,58050,.10051788E-3,.769E-5,0
YAOGAN-28,2015-064A,2026-06-19T08:29:12.357600,15.27443400,.0010831,97.3082,308.5708,175.7252,184.4082,0,U,41026,999,59101,.1990525E-3,.5281E-4,0
YAOGAN-29,2015-069A,2026-06-19T08:04:58.536768,14.83086468,.00025283,98.0021,198.9736,51.4321,308.7118,0,U,41038,999,57094,.13066162E-4,.52E-6,0
KENT RIDGE 1,2015-077B,2026-06-19T07:47:11.840640,15.23142831,.00082405,14.9791,250.0955,268.7936,91.1442,0,U,41167,999,58142,.10516686E-3,.3322E-4,0
GAOFEN-4,2015-083A,2026-06-19T02:04:38.642304,1.00274677,.00041938,0.3635,83.8468,117.7548,202.5591,0,U,41194,999,3854,0,-.341E-5,0
JASON-3,2016-002A,2026-06-19T06:07:16.858272,12.87628081,.00084946,66.0405,121.4875,272.7056,87.2991,0,U,41240,999,48751,.60207314E-4,-.47E-6,0
SENTINEL-3A,2016-011A,2026-06-19T06:00:27.648864,14.26733252,.00014124,98.6249,237.6045,99.7773,260.3567,0,U,41335,999,53835,.55077087E-4,.9E-6,0
ZIYUAN 3-02 (ZY 3-02),2016-033A,2026-06-19T07:04:02.854272,15.21196616,.00123646,97.3833,246.0294,283.4186,76.5671,0,U,41556,999,55830,.20535869E-3,.4519E-4,0
CARTOSAT-2C,2016-040A,2026-06-19T07:11:57.727680,15.19204759,.00101583,97.4477,230.2494,124.8728,235.3463,0,U,41599,999,55403,.12698299E-3,.2607E-4,0
